[{"OBJECT_NAME":"STARLINK-34624","OBJECT_ID":"2025-150R","EPOCH":"2026-03-09T14:53:15.378432","MEAN_MOTION":14.98330857,"ECCENTRICITY":0.000372,"INCLINATION":70.0015,"RA_OF_ASC_NODE":134.7437,"ARG_OF_PERICENTER":267.4262,"MEAN_ANOMALY":92.6471,"EPHEMERIS_TYPE":0,"CLASSIFICATION_TYPE":"U","NORAD_CAT_ID":64805,"ELEMENT_SET_NO":999,"REV_AT_EPOCH":3650,"BSTAR":0.00045601,"MEAN_MOTION_DOT":5.353e-5,"MEAN_MOTION_DDOT":0},{"OBJECT_NAME":"SL-8 DEB","OBJECT_ID":"1971-114C","EPOCH":"2026-03-09T10:06:38.914272","MEAN_MOTION":14.97936297,"ECCENTRICITY":0.00069633,"INCLINATION":74.0033,"RA_OF_ASC_NODE":186.861,"ARG_OF_PERICENTER":298.1447,"MEAN_ANOMALY":61.9034,"EPHEMERIS_TYPE":0,"CLASSIFICATION_TYPE":"U","NORAD_CAT_ID":5778,"ELEMENT_SET_NO":999,"REV_AT_EPOCH":88447,"BSTAR":0.0010014796,"MEAN_MOTION_DOT":0.00011794,"MEAN_MOTION_DDOT":0}]
